HORS 5                  
1 67283U 25313AM  26015.76842147  .00005360  00000+0  24311-3 0  9990
2 67283  97.4117  92.9366 0011363 167.6122 192.5395 15.21184533  2774
LOBACHEVSKY (RS83S)     
1 67284U 25313AN  26015.76942930  .00002326  00000+0  10787-3 0  9993
2 67284  97.4101  92.9311 0011336 167.4409 192.7111 15.20997816  2777
NASBSAT-2               
1 67285U 25313AP  26015.83337193  .00005063  00000+0  22948-3 0  9994
2 67285  97.4094  92.9962 0010980 168.6449 191.5036 15.21243946  2785
2025-313AQ              
1 67286U 25313AQ  26015.83281129  .00004529  00000+0  20545-3 0  9999
2 67286  97.4116  93.0107 0010701 164.7988 195.3571 15.21272917  2786
LUCA (RS90S)            
1 67287U 25313AR  26015.76639510  .00005773  00000+0  26029-3 0  9998
2 67287  97.4116  92.9471 0010576 165.6796 194.4742 15.21363368  2776
2025-313AS              
1 67288U 25313AS  26015.83304877  .00003557  00000+0  16222-3 0  9994
2 67288  97.4104  93.0069 0012441 158.2396 201.9371 15.21220923  2788
NASBSAT-1               
1 67289U 25313AT  26015.83105447  .00008284  00000+0  37036-3 0  9995
2 67289  97.4117  93.0139 0010475 165.9679 194.1850 15.21522875  2781
SAKHACUBE-CHOLBON (RS1*)
1 67290U 25313AU  26015.76547578  .00006190  00000+0  27817-3 0  9994
2 67290  97.4116  92.9485 0010297 165.0831 195.0711 15.21453458  2772
QMR-KWT-2 (RS95S)       
1 67291U 25313AV  26015.76500526  .00006860  00000+0  30737-3 0  9996
2 67291  97.4115  92.9492 0010199 165.0999 195.0540 15.21514456  2772
SITRO-AIS-64            
1 67292U 25313AW  26015.83013418  .00006350  00000+0  28451-3 0  9998
2 67292  97.4119  93.0161 0009984 164.5500 195.6043 15.21549601  2789
SCORPION (RS89S)        
1 67293U 25313AX  26015.83143276  .00002748  00000+0  12565-3 0  9991
2 67293  97.4114  93.0109 0011907 155.9307 204.2487 15.21332316  2786
SITRO-AIS-63            
1 67294U 25313AY  26015.82962523  .00006318  00000+0  28275-3 0  9997
2 67294  97.4122  93.0172 0009867 164.7340 195.4196 15.21592076  2782
