CCSDS_OMM_VERS = 2.0
CREATION_DATE  = 
ORIGINATOR     = 

OBJECT_NAME    = HORS 5
OBJECT_ID      = 2025-313AM
CENTER_NAME    = EARTH
REF_FRAME      = TEME
TIME_SYSTEM    = UTC
MEAN_ELEMENT_THEORY = SGP/SGP4

EPOCH          = 2026-01-15T18:26:31.615008
MEAN_MOTION    = 15.21184533
ECCENTRICITY   = .0011363
INCLINATION    = 97.4117
RA_OF_ASC_NODE = 92.9366
ARG_OF_PERICENTER = 167.6122
MEAN_ANOMALY   = 192.5395

EPHEMERIS_TYPE = 0
CLASSIFICATION_TYPE = U
NORAD_CAT_ID   = 67283
ELEMENT_SET_NO = 999
REV_AT_EPOCH   = 277
BSTAR          = .24311E-3
MEAN_MOTION_DOT = .536E-4
MEAN_MOTION_DDOT = 0

CCSDS_OMM_VERS = 2.0
CREATION_DATE  = 
ORIGINATOR     = 

OBJECT_NAME    = LOBACHEVSKY (RS83S)
OBJECT_ID      = 2025-313AN
CENTER_NAME    = EARTH
REF_FRAME      = TEME
TIME_SYSTEM    = UTC
MEAN_ELEMENT_THEORY = SGP/SGP4

EPOCH          = 2026-01-15T18:27:58.691520
MEAN_MOTION    = 15.20997816
ECCENTRICITY   = .0011336
INCLINATION    = 97.4101
RA_OF_ASC_NODE = 92.9311
ARG_OF_PERICENTER = 167.4409
MEAN_ANOMALY   = 192.7111

EPHEMERIS_TYPE = 0
CLASSIFICATION_TYPE = U
NORAD_CAT_ID   = 67284
ELEMENT_SET_NO = 999
REV_AT_EPOCH   = 277
BSTAR          = .10787E-3
MEAN_MOTION_DOT = .2326E-4
MEAN_MOTION_DDOT = 0

CCSDS_OMM_VERS = 2.0
CREATION_DATE  = 
ORIGINATOR     = 

OBJECT_NAME    = NASBSAT-2
OBJECT_ID      = 2025-313AP
CENTER_NAME    = EARTH
REF_FRAME      = TEME
TIME_SYSTEM    = UTC
MEAN_ELEMENT_THEORY = SGP/SGP4

EPOCH          = 2026-01-15T20:00:03.334752
MEAN_MOTION    = 15.21243946
ECCENTRICITY   = .001098
INCLINATION    = 97.4094
RA_OF_ASC_NODE = 92.9962
ARG_OF_PERICENTER = 168.6449
MEAN_ANOMALY   = 191.5036

EPHEMERIS_TYPE = 0
CLASSIFICATION_TYPE = U
NORAD_CAT_ID   = 67285
ELEMENT_SET_NO = 999
REV_AT_EPOCH   = 278
BSTAR          = .22948E-3
MEAN_MOTION_DOT = .5063E-4
MEAN_MOTION_DDOT = 0

CCSDS_OMM_VERS = 2.0
CREATION_DATE  = 
ORIGINATOR     = 

OBJECT_NAME    = 2025-313AQ
OBJECT_ID      = 2025-313AQ
CENTER_NAME    = EARTH
REF_FRAME      = TEME
TIME_SYSTEM    = UTC
MEAN_ELEMENT_THEORY = SGP/SGP4

EPOCH          = 2026-01-15T19:59:14.895456
MEAN_MOTION    = 15.21272917
ECCENTRICITY   = .0010701
INCLINATION    = 97.4116
RA_OF_ASC_NODE = 93.0107
ARG_OF_PERICENTER = 164.7988
MEAN_ANOMALY   = 195.3571

EPHEMERIS_TYPE = 0
CLASSIFICATION_TYPE = U
NORAD_CAT_ID   = 67286
ELEMENT_SET_NO = 999
REV_AT_EPOCH   = 278
BSTAR          = .20545E-3
MEAN_MOTION_DOT = .4529E-4
MEAN_MOTION_DDOT = 0

CCSDS_OMM_VERS = 2.0
CREATION_DATE  = 
ORIGINATOR     = 

OBJECT_NAME    = LUCA (RS90S)
OBJECT_ID      = 2025-313AR
CENTER_NAME    = EARTH
REF_FRAME      = TEME
TIME_SYSTEM    = UTC
MEAN_ELEMENT_THEORY = SGP/SGP4

EPOCH          = 2026-01-15T18:23:36.536640
MEAN_MOTION    = 15.21363368
ECCENTRICITY   = .0010576
INCLINATION    = 97.4116
RA_OF_ASC_NODE = 92.9471
ARG_OF_PERICENTER = 165.6796
MEAN_ANOMALY   = 194.4742

EPHEMERIS_TYPE = 0
CLASSIFICATION_TYPE = U
NORAD_CAT_ID   = 67287
ELEMENT_SET_NO = 999
REV_AT_EPOCH   = 277
BSTAR          = .26029E-3
MEAN_MOTION_DOT = .5773E-4
MEAN_MOTION_DDOT = 0

CCSDS_OMM_VERS = 2.0
CREATION_DATE  = 
ORIGINATOR     = 

OBJECT_NAME    = 2025-313AS
OBJECT_ID      = 2025-313AS
CENTER_NAME    = EARTH
REF_FRAME      = TEME
TIME_SYSTEM    = UTC
MEAN_ELEMENT_THEORY = SGP/SGP4

EPOCH          = 2026-01-15T19:59:35.413728
MEAN_MOTION    = 15.21220923
ECCENTRICITY   = .0012441
INCLINATION    = 97.4104
RA_OF_ASC_NODE = 93.0069
ARG_OF_PERICENTER = 158.2396
MEAN_ANOMALY   = 201.9371

EPHEMERIS_TYPE = 0
CLASSIFICATION_TYPE = U
NORAD_CAT_ID   = 67288
ELEMENT_SET_NO = 999
REV_AT_EPOCH   = 278
BSTAR          = .16222E-3
MEAN_MOTION_DOT = .3557E-4
MEAN_MOTION_DDOT = 0

CCSDS_OMM_VERS = 2.0
CREATION_DATE  = 
ORIGINATOR     = 

OBJECT_NAME    = NASBSAT-1
OBJECT_ID      = 2025-313AT
CENTER_NAME    = EARTH
REF_FRAME      = TEME
TIME_SYSTEM    = UTC
MEAN_ELEMENT_THEORY = SGP/SGP4

EPOCH          = 2026-01-15T19:56:43.106208
MEAN_MOTION    = 15.21522875
ECCENTRICITY   = .0010475
INCLINATION    = 97.4117
RA_OF_ASC_NODE = 93.0139
ARG_OF_PERICENTER = 165.9679
MEAN_ANOMALY   = 194.1850

EPHEMERIS_TYPE = 0
CLASSIFICATION_TYPE = U
NORAD_CAT_ID   = 67289
ELEMENT_SET_NO = 999
REV_AT_EPOCH   = 278
BSTAR          = .37036E-3
MEAN_MOTION_DOT = .8284E-4
MEAN_MOTION_DDOT = 0

CCSDS_OMM_VERS = 2.0
CREATION_DATE  = 
ORIGINATOR     = 

OBJECT_NAME    = SAKHACUBE-CHOLBON (RS18S)
OBJECT_ID      = 2025-313AU
CENTER_NAME    = EARTH
REF_FRAME      = TEME
TIME_SYSTEM    = UTC
MEAN_ELEMENT_THEORY = SGP/SGP4

EPOCH          = 2026-01-15T18:22:17.107392
MEAN_MOTION    = 15.21453458
ECCENTRICITY   = .0010297
INCLINATION    = 97.4116
RA_OF_ASC_NODE = 92.9485
ARG_OF_PERICENTER = 165.0831
MEAN_ANOMALY   = 195.0711

EPHEMERIS_TYPE = 0
CLASSIFICATION_TYPE = U
NORAD_CAT_ID   = 67290
ELEMENT_SET_NO = 999
REV_AT_EPOCH   = 277
BSTAR          = .27817E-3
MEAN_MOTION_DOT = .619E-4
MEAN_MOTION_DDOT = 0

CCSDS_OMM_VERS = 2.0
CREATION_DATE  = 
ORIGINATOR     = 

OBJECT_NAME    = QMR-KWT-2 (RS95S)
OBJECT_ID      = 2025-313AV
CENTER_NAME    = EARTH
REF_FRAME      = TEME
TIME_SYSTEM    = UTC
MEAN_ELEMENT_THEORY = SGP/SGP4

EPOCH          = 2026-01-15T18:21:36.454464
MEAN_MOTION    = 15.21514456
ECCENTRICITY   = .0010199
INCLINATION    = 97.4115
RA_OF_ASC_NODE = 92.9492
ARG_OF_PERICENTER = 165.0999
MEAN_ANOMALY   = 195.0540

EPHEMERIS_TYPE = 0
CLASSIFICATION_TYPE = U
NORAD_CAT_ID   = 67291
ELEMENT_SET_NO = 999
REV_AT_EPOCH   = 277
BSTAR          = .30737E-3
MEAN_MOTION_DOT = .686E-4
MEAN_MOTION_DDOT = 0

CCSDS_OMM_VERS = 2.0
CREATION_DATE  = 
ORIGINATOR     = 

OBJECT_NAME    = SITRO-AIS-64
OBJECT_ID      = 2025-313AW
CENTER_NAME    = EARTH
REF_FRAME      = TEME
TIME_SYSTEM    = UTC
MEAN_ELEMENT_THEORY = SGP/SGP4

EPOCH          = 2026-01-15T19:55:23.593152
MEAN_MOTION    = 15.21549601
ECCENTRICITY   = .0009984
INCLINATION    = 97.4119
RA_OF_ASC_NODE = 93.0161
ARG_OF_PERICENTER = 164.5500
MEAN_ANOMALY   = 195.6043

EPHEMERIS_TYPE = 0
CLASSIFICATION_TYPE = U
NORAD_CAT_ID   = 67292
ELEMENT_SET_NO = 999
REV_AT_EPOCH   = 278
BSTAR          = .28451E-3
MEAN_MOTION_DOT = .635E-4
MEAN_MOTION_DDOT = 0

CCSDS_OMM_VERS = 2.0
CREATION_DATE  = 
ORIGINATOR     = 

OBJECT_NAME    = SCORPION (RS89S)
OBJECT_ID      = 2025-313AX
CENTER_NAME    = EARTH
REF_FRAME      = TEME
TIME_SYSTEM    = UTC
MEAN_ELEMENT_THEORY = SGP/SGP4

EPOCH          = 2026-01-15T19:57:15.790464
MEAN_MOTION    = 15.21332316
ECCENTRICITY   = .0011907
INCLINATION    = 97.4114
RA_OF_ASC_NODE = 93.0109
ARG_OF_PERICENTER = 155.9307
MEAN_ANOMALY   = 204.2487

EPHEMERIS_TYPE = 0
CLASSIFICATION_TYPE = U
NORAD_CAT_ID   = 67293
ELEMENT_SET_NO = 999
REV_AT_EPOCH   = 278
BSTAR          = .12565E-3
MEAN_MOTION_DOT = .2748E-4
MEAN_MOTION_DDOT = 0

CCSDS_OMM_VERS = 2.0
CREATION_DATE  = 
ORIGINATOR     = 

OBJECT_NAME    = SITRO-AIS-63
OBJECT_ID      = 2025-313AY
CENTER_NAME    = EARTH
REF_FRAME      = TEME
TIME_SYSTEM    = UTC
MEAN_ELEMENT_THEORY = SGP/SGP4

EPOCH          = 2026-01-15T19:54:39.619872
MEAN_MOTION    = 15.21592076
ECCENTRICITY   = .0009867
INCLINATION    = 97.4122
RA_OF_ASC_NODE = 93.0172
ARG_OF_PERICENTER = 164.7340
MEAN_ANOMALY   = 195.4196

EPHEMERIS_TYPE = 0
CLASSIFICATION_TYPE = U
NORAD_CAT_ID   = 67294
ELEMENT_SET_NO = 999
REV_AT_EPOCH   = 278
BSTAR          = .28275E-3
MEAN_MOTION_DOT = .6318E-4
MEAN_MOTION_DDOT = 0

